{
  "norad_id": 57829,
  "name": "STARLINK-30418",
  "history": [
    {
      "epoch": "2026-03-28T19:14:17.793312",
      "apogee_km": 486.4512012408577,
      "perigee_km": 484.560130413568,
      "latitude_deg": -42.53683358458928,
      "longitude_deg": 39.85310368007049,
      "semi_major_axis_km": 6863.642665827212,
      "eccentricity": 0.00013776,
      "inclination_deg": 43.0041,
      "raan_deg": 126.0311,
      "arg_perigee_deg": 271.2177,
      "mean_anomaly_deg": 88.8517,
      "mean_motion_rev_day": 15.26759968
    }
  ]
}