{"fetched_at":"2026-03-29T16:36:15Z","count":15609,"tles":[{"name":"STARLINK-30418","line1":"1 57829U 23138X   26087.80159483  .00002660  00000+0  10874-3 0  9995","line2":"2 57829  43.0041 126.0311 0001377 271.2177  88.8517 15.26759968141498","category":"Starlink"}]}